[{"OBJECT_NAME":"GAOFEN-3 02","OBJECT_ID":"2021-109A","EPOCH":"2026-03-09T23:26:55.915584","MEAN_MOTION":14.42215794,"ECCENTRICITY":0.00015915,"INCLINATION":98.4134,"RA_OF_ASC_NODE":78.4682,"ARG_OF_PERICENTER":307.7744,"MEAN_ANOMALY":52.3302,"EPHEMERIS_TYPE":0,"CLASSIFICATION_TYPE":"U","NORAD_CAT_ID":49495,"ELEMENT_SET_NO":999,"REV_AT_EPOCH":22601,"BSTAR":5.592981e-6,"MEAN_MOTION_DOT":-2.5e-7,"MEAN_MOTION_DDOT":0},{"OBJECT_NAME":"CZ-6A DEB","OBJECT_ID":"2024-140EK","EPOCH":"2026-03-09T15:28:36.104448","MEAN_MOTION":14.67108539,"ECCENTRICITY":0.016811,"INCLINATION":89.0843,"RA_OF_ASC_NODE":287.4051,"ARG_OF_PERICENTER":210.7562,"MEAN_ANOMALY":148.3722,"EPHEMERIS_TYPE":0,"CLASSIFICATION_TYPE":"U","NORAD_CAT_ID":60760,"ELEMENT_SET_NO":999,"REV_AT_EPOCH":8264,"BSTAR":0.00036142,"MEAN_MOTION_DOT":2.531e-5,"MEAN_MOTION_DDOT":0}]
